[{"OBJECT_NAME":"APRIZESAT 4","OBJECT_ID":"2009-041D","EPOCH":"2026-03-09T17:20:05.268480","MEAN_MOTION":14.83708924,"ECCENTRICITY":0.00421139,"INCLINATION":98.1485,"RA_OF_ASC_NODE":142.0456,"ARG_OF_PERICENTER":284.5899,"MEAN_ANOMALY":75.0646,"EPHEMERIS_TYPE":0,"CLASSIFICATION_TYPE":"U","NORAD_CAT_ID":35684,"ELEMENT_SET_NO":999,"REV_AT_EPOCH":89661,"BSTAR":0.00013888514,"MEAN_MOTION_DOT":1.106e-5,"MEAN_MOTION_DDOT":0},{"OBJECT_NAME":"IRIDIUM 33 DEB","OBJECT_ID":"1997-051WG","EPOCH":"2026-03-08T23:53:43.067040","MEAN_MOTION":14.78815677,"ECCENTRICITY":0.00051451,"INCLINATION":86.3665,"RA_OF_ASC_NODE":331.4918,"ARG_OF_PERICENTER":93.6295,"MEAN_ANOMALY":266.5514,"EPHEMERIS_TYPE":0,"CLASSIFICATION_TYPE":"U","NORAD_CAT_ID":36490,"ELEMENT_SET_NO":999,"REV_AT_EPOCH":87758,"BSTAR":0.0022743577,"MEAN_MOTION_DOT":0.00016774,"MEAN_MOTION_DDOT":0}]
